UPSAT                   
1 42716U 98067LX  17304.51137121  .00027116  00000-0  31525-3 0  9992
2 42716  51.6381  74.5709 0003079 117.5786 242.5521 15.61517648 25891
SPACECUBE               
1 42717U 98067LY  17304.55613500  .00021641  00000-0  26368-3 0  9993
2 42717  51.6379  74.8685 0003361 116.7636 243.3701 15.60434137 25130
HOOPOE                  
1 42718U 98067LZ  17304.53360499  .00024300  00000-0  28919-3 0  9997
2 42718  51.6379  74.7183 0003191 115.0289 245.1036 15.60975386 25137
CHALLENGER              
1 42721U 98067MA  17304.56164811  .00035717  00000-0  39474-3 0  9996
2 42721  51.6369  74.1439 0005041  90.4286 269.7286 15.62672252 24841
NJUST-1                 
1 42722U 98067MB  17304.56055258  .00017560  00000-0  22499-3 0  9996
2 42722  51.6382  75.6457 0006435  95.5614 264.6113 15.59247494 24825
UNSW-ECO                
1 42723U 98067MC  17304.43837149  .00026967  00000-0  32137-3 0  9991
2 42723  51.6386  75.5840 0005648  92.4921 267.6719 15.60865495 24797
DUTHSAT                 
1 42724U 98067MD  17304.51543438  .00034293  00000-0  38434-3 0  9993
2 42724  51.6377  74.5944 0004331  93.9358 266.2132 15.62335693 24743
LILACSAT-1              
1 42725U 98067ME  17304.55070635  .00019514  00000-0  24453-3 0  9997
2 42725  51.6384  75.5832 0005209  97.1537 263.0048 15.59762058 24723
NSIGHT-1                
1 42726U 98067MF  17304.50273198  .00010818  00000-0  15025-3 0  9995
2 42726  51.6393  76.7671 0006194 100.1550 260.0141 15.57576353 24711
SNUSAT-1                
1 42727U 98067MG  17304.54909069  .00016836  00000-0  21285-3 0  9994
2 42727  51.6372  75.5588 0006882  56.3342 303.8306 15.59634182 24691
QBITO                   
1 42728U 98067MH  17304.51982672  .00022645  00000-0  27716-3 0  9993
2 42728  51.6397  75.3880 0002673 105.2713 254.8576 15.60286051 24539
AALTO-2                 
1 42729U 98067MJ  17304.51930285  .00023150  00000-0  28264-3 0  9998
2 42729  51.6386  75.3756 0002586 104.3976 255.7304 15.60336575 24541
SUSAT                   
1 42730U 98067MK  17304.53085415  .00021274  00000-0  26316-3 0  9999
2 42730  51.6381  75.4490 0002722 100.8699 259.2600 15.60048296 24536
I-INSPIRE II            
1 42731U 98067ML  17304.55513652  .00024270  00000-0  28688-3 0  9994
2 42731  51.6372  74.8480 0006087  38.3097 321.8328 15.61140060 24596
POLYITAN-2-SAU          
1 42732U 98067MM  17304.44870897  .00023230  00000-0  28207-3 0  9992
2 42732  51.6376  75.6393 0006187  38.5581 321.5854 15.60463720 24573
SNUSAT-1B               
1 42733U 98067MN  17304.53081163  .00021176  00000-0  26220-3 0  9993
2 42733  51.6381  75.4406 0006283  42.7278 317.4203 15.60012260 24582
EXALTA-1                
1 42734U 98067MP  17304.55926709  .00026831  00000-0  31794-3 0  9995
2 42734  51.6372  74.8779 0007206  66.2634 293.9115 15.61006019 24544
AOXIANG-1               
1 42735U 98067MQ  17304.55500012  .00017679  00000-0  22548-3 0  9998
2 42735  51.6376  75.6048 0006958  92.0507 268.1282 15.59360664 25957
BEEAGLESAT              
1 42736U 98067MR  17304.54470091  .00018748  00000-0  23561-3 0  9995
2 42736  51.6376  75.5364 0006728  90.1118 270.0646 15.59706394 24645
ATLANTIS                
1 42737U 98067MS  17304.50386362  .00058129  00000-0  54828-3 0  9996
2 42737  51.6350  72.9945 0003982  69.6518 290.4906 15.66468245 24562
PROGRESS-MS 06          
1 42756U 17033A   17303.39434294  .00004083  00000-0  68466-4 0  9999
2 42756  51.6415  84.2892 0005359  74.9114 313.5168 15.54305141 21479
ISS DEB (ROSA)          
1 42813U 98067MT  17304.51029475  .00091899  00000-0  83319-3 0  9999
2 42813  51.6357  74.5478 0003651   1.4978 358.6028 15.67259742 19949
SOYUZ-MS 05             
1 42898U 17043A   17303.39434294  .00004083  00000-0  68466-4 0  9997
2 42898  51.6415  84.2892 0005359  74.9114 313.5168 15.54305141 14579
SOYUZ-MS 06             
1 42937U 17054A   17303.39434294  .00004083  00000-0  68466-4 0  9993
2 42937  51.6415  84.2892 0005359  74.9114 313.5168 15.54305141  7395
PROGRESS-MS 07          
1 42971U 17065A   17303.39434294  .00004083  00000-0  68466-4 0  9993
2 42971  51.6415  84.2892 0005359  74.9114 313.5168 15.54305141  2501
KESTREL EYE IIM (KE2M)  
1 42982U 98067NE  17304.49579319  .00009387  00000-0  14666-3 0  9990
2 42982  51.6416  78.7898 0005383  81.6222 358.8101 15.54539819  1093
SIMPL                   
1 42983U 98067NF  17304.43617567  .00005630  00000-0  91086-4 0  9992
2 42983  51.6413  79.0919 0005222  70.1579  34.0313 15.54479441   618
